#cP2015 12  2  0  0  0.00000000      96 ORBIT IGb08 HLM  IGS
## 1873 259200.00000000   900.00000000 57358 0.0000000000000
+   31   G01G02G03G05G06G07G08G09G10G11G12G13G14G15G16G17G18
+        G19G20G21G22G23G24G25G26G27G28G29G30G31G32  0  0  0
+          0  0  0  0  0  0  0  0  0  0  0  0  0  0  0  0  0
+          0  0  0  0  0  0  0  0  0  0  0  0  0  0  0  0  0
+          0  0  0  0  0  0  0  0  0  0  0  0  0  0  0  0  0
++         2  2  2  2  2  2  2  2  0  2  2  2  2  2  2  2  2
++         2  2  2  2  2  2  2  2  2  2  2  2  2  2  0  0  0
++         0  0  0  0  0  0  0  0  0  0  0  0  0  0  0  0  0
++         0  0  0  0  0  0  0  0  0  0  0  0  0  0  0  0  0
++         0  0  0  0  0  0  0  0  0  0  0  0  0  0  0  0  0
%c G  cc GPS ccc cccc cccc cccc cccc ccccc ccccc ccccc ccccc
%c cc cc ccc ccc cccc cccc cccc cccc ccccc ccccc ccccc ccccc
%f  1.2500000  1.025000000  0.00000000000  0.000000000000000
%f  0.0000000  0.000000000  0.00000000000  0.000000000000000
%i    0    0    0    0      0      0      0      0         0
%i    0    0    0    0      0      0      0      0         0
/* FINAL ORBIT COMBINATION FROM WEIGHTED AVERAGE OF:        
/* cod emr esa gfz grg jpl mit ngs sio                      
/* REFERENCED TO IGS TIME (IGST) AND TO WEIGHTED MEAN POLE: 
/* PCV:IGS08_1869 OL/AL:FES2004  NONE     Y  ORB:CMB CLK:CMB
*  2015 12  2  3  0  0.00000000
PG01 -16496.156347 -13488.101904 -16059.446398      5.689089  5  4  5 115       
PG02  -7749.075577  14672.139880  21060.905226    597.067310  6  6  6 114       
PG03 -12851.370504 -22819.049170   4358.475797      7.608213  5  5  6  91       
PG05   -449.918654  22949.611000  13124.623454   -169.129528  7  8  3 117       
PG06 -20634.023886   7777.084076  14796.445023    105.003461  6  5  7 115       
PG07 -25933.090175  -6021.641462   2960.898829    478.684694  4  8  6  94       
PG08    834.566609 -20539.749743 -16768.838421    -14.629321  3  8  3  86       
PG09 -16833.643886  -1644.657190  20467.903113     20.183372  5  4  3 118       
PG10  15501.343314  -2256.110414 -21611.035942 999999.999999
PG11 -11567.747517 -13820.978095 -20079.091074   -619.392865  6  6  6 108       
PG12  10308.812705  24506.281274   2099.374034    349.984209  6  7  5 112       
PG13 -10256.759657  21860.741871 -11306.943400   -168.403271  5  7  6  86       
PG14  20776.676331 -12486.258012 -10431.239650     18.076731  4  4  5 102       
PG15   2867.969465  19391.029958 -17880.366909   -285.070982  5  8  5 115       
PG16   1936.099614 -22380.019509  13785.094187    -61.236718  7  6  3 112       
PG17 -20286.263397  12833.169507 -10816.031879   -195.517511  5  8  6 105       
PG18  18002.921653   7952.912270 -17446.377116    458.533686  6  7  6 121       
PG19 -19050.348989   1663.574549 -18858.471781   -523.335386  4  7  5 108       
PG20  13033.664189  23065.901078  -1395.228885    375.244092  5  7  3 101       
PG21  26547.146866   3090.213137    384.798556   -496.995990  7  7  8  95       
PG22  14128.630478  -7379.724311 -21004.330839    415.817303  4  6  4 102       
PG23  -8742.288471 -13623.688057  21162.092799   -147.510200  6  3  5 109       
PG24  13875.636816  14220.797282 -17746.890136     -8.715097  6  5  4 106       
PG25  16454.600653  16006.521689  13409.761579    -76.272530  7  7  5 109       
PG26   8626.645057 -15318.803091  19907.760041   -146.665445  7  5  4 106       
PG27  10206.437029 -22989.707987  -8344.687349     40.722235  6  8  3 103       
PG28 -14129.383511   2715.770041 -21697.403828    485.364698  7  8  5 106       
PG29  14766.942965   5099.199375  21489.510572    646.697493  8  8  3 105       
PG30 -25328.981480    763.165931  -8093.250939     65.109416  5  8  6 108       
PG31  19986.873424  -7805.761037  16005.636083    292.960223  5  6  5 118       
PG32  -4145.405203 -25915.177399  -5723.953463     34.759797  6  8  5  85       
*  2015 12  2  3 15  0.00000000
PG01 -14571.820420 -13437.696839 -17852.129461      5.689860  5  4  5 115       
PG02 -10034.616232  14429.998672  20191.557741    597.067954  7  6  6 113       
PG03 -12754.899975 -23233.918985   1531.645319      7.604179  4  5  6  86       
PG05  -1362.089490  21560.937190  15251.794898   -169.126020  7  8  3 114       
PG06 -22175.519018   7438.834770  12572.630381    105.009365  6  5  7 113       
PG07 -25434.772934  -6162.223837   5752.038937    478.683709  3  8  6  98       
PG08   2022.136522 -21923.357140 -14807.586901    -14.630988  3  8  3  81       
PG09 -15518.666050  -3641.504062  21233.554353     20.189845  5  3  4 120       
PG10  16467.987356    -43.332488 -21009.107046 999999.999999
PG11  -9418.404010 -14499.391646 -20725.225585   -619.394729  6  5  6 118       
PG12  10196.339897  24642.922682   -799.589201    349.987266  7  8  6 114       
PG13 -11146.664634  22574.731657  -8749.678452   -168.405670  5  7  6  93       
PG14  20068.083216 -11291.384630 -12855.397659     18.074780  3  3  5  94       
PG15   1641.272431  20922.869055 -16188.536409   -285.072424  5  9  5 112       
PG16   2683.727967 -20820.390103  15955.445229    -61.233636  7  7  3 115       
PG17 -19567.001577  11585.813433 -13230.674994   -195.518286  4  8  7 109       
PG18  18684.028277   9834.459969 -15763.028331    458.537181  7  6  6 117       
PG19 -17689.627294    -32.028200 -20187.564802   -523.335644  4  7  5 116       
PG20  12711.165498  23226.107325   1393.183274    375.246645  5  8  3  96       
PG21  26400.199645   3381.690272   3161.354738   -496.997905  7  7  7 103       
PG22  15206.816757  -5165.217817 -20929.594834    415.820538  5  6  4  99       
PG23  -7296.928853 -15484.813152  20370.912458   -147.511958  6  4  5 112       
PG24  11766.405219  14200.207994 -19213.340045     -8.716052  7  5  4 115       
PG25  16889.937618  17350.300611  11015.101750    -76.277928  6  7  4 107       
PG26   9688.397950 -13238.592476  20889.229531   -146.680404  7  5  4 114       
PG27  10852.084380 -23510.741960  -5614.528508     40.725108  5  8  3 103       
PG28 -15005.595449    278.044440 -21291.368881    485.367099  6  8  5 111       
PG29  13249.264123   7056.921858  21924.209192    646.698941  8  8  3 115       
PG30 -26047.323466    384.654605  -5396.931900     65.114273  6  8  6 111       
PG31  21632.529805  -7456.630069  13907.210600    292.959270  5  6  5 121       
PG32  -3651.325280 -25256.606238  -8367.204094     34.770618  6  8  5  84       
*  2015 12  2  3 30  0.00000000
PG01 -12461.949024 -13481.715195 -19341.576790      5.690621  5  5  5 127       
PG02 -12218.820351  14300.887816  18982.852001    597.068565  7  7  6 109       
PG03 -12529.368296 -23369.013309  -1321.581138      7.600130  4  6  6  95       
PG05  -2448.888258  20020.038513  17113.068053   -169.122582  7  8  3 109       
PG06 -23468.621307   7190.630370  10132.309008    105.015289  6  5  7 116       
PG07 -24638.002531  -6311.012300   8446.757969    478.682858  4  7  6 104       
PG08   3010.891444 -23165.398810 -12590.713818    -14.632410  4  8  4  87       
PG09 -14273.262262  -5759.493395  21633.463430     20.196294  5  2  5 110       
PG10  17508.247006   2038.097328 -20051.082435 999999.999999
PG11  -7251.206024 -15285.812111 -21031.470477   -619.396454  6  5  6 107       
PG12   9953.318273  24490.011021  -3684.985454    349.989928  7  8  6 116       
PG13 -11812.791424  23103.173304  -6043.408416   -168.408200  5  7  6  95       
PG14  19266.050443  -9847.070097 -15053.545539     18.072703  4  3  5  79       
PG15    586.488540  22331.912584 -14216.403841   -285.074270  5  9  5 117       
PG16   3611.635764 -19093.823523  17845.196094    -61.230614  7  7  3 114       
PG17 -18765.777134  10082.983712 -15411.033955   -195.519177  3  8  7 115       
PG18  19348.701359  11496.375931 -13801.831706    458.540612  7  6  5 119       
PG19 -16344.258006  -1905.071479 -21180.052754   -523.335943  5  6  5 110       
PG20  12227.819620  23136.827308   4157.475320    375.249103  5  8  2 108       
PG21  25962.166991   3669.498931   5885.022735   -496.999891  6  7  7 110       
PG22  16369.019086  -3029.358279 -20487.371090    415.823532  5  7  4  82       
PG23  -6001.370593 -17327.334843  19231.106289   -147.513690  6  5  5 106       
PG24   9510.919409  14284.880231 -20351.815077     -8.716519  7  5  4 109       
PG25  17266.719831  18417.770966   8431.732107    -76.283301  6  7  4 114       
PG26  10899.800802 -11136.679426  21511.291303   -146.695292  6  5  4 106       
PG27  11302.998074 -23796.901996  -2787.038478     40.728053  5  8  4 109       
PG28 -15985.062851  -2041.623172 -20497.067634    485.369440  7  8  5 112       
PG29  11824.671253   9116.956923  21982.126316    646.700573  7  7  4 107       
PG30 -26476.162217     76.597081  -2608.173024     65.119128  6  8  6 112       
PG31  23046.262145  -7215.246409  11575.179346    292.957521  5  7  5 117       
PG32  -3009.899585 -24360.287203 -10871.131931     34.781491  5  8  5  83       
EOF
